{"type": "FeatureCollection", "features": [ {"type": "Feature", "properties": {"norad_id": 30891, "name": "FENGYUN 1C DEB", "group": "fengyun-1c-debris", "lat": 15.12643955885374, "lon": 28.56810893204004, "alt_km": 914.2654545139321, "timestamp": "2025-12-09T05:43:21.005323+00:00", "meta": {"OBJECT_NAME": "FENGYUN 1C DEB", "OBJECT_ID": "1999-025AYD", "EPOCH": "2025-12-08T02:27:34.225344", "MEAN_MOTION": 14.05848343, "ECCENTRICITY": 0.00550914, "INCLINATION": 98.7846, "RA_OF_ASC_NODE": 29.8623, "ARG_OF_PERICENTER": 200.6851, "MEAN_ANOMALY": 188.7484, "EPHEMERIS_TYPE": 0, "CLASSIFICATION_TYPE": "U", "NORAD_CAT_ID": 30891, "ELEMENT_SET_NO": 999, "REV_AT_EPOCH": 95917, "BSTAR": 0.0010011846, "MEAN_MOTION_DOT": 1.617e-05, "MEAN_MOTION_DDOT": 0}, "tle": {"line1": "1 30891U 99025AYD 25342.10247946  .00001617  00000+0  10012-2 0  9995", "line2": "2 30891  98.7846  29.8623 0055091 200.6851 188.7484 14.05848343959178"}}, "geometry": {"type": "Point", "coordinates": [28.56810893204004, 15.12643955885374]}}, {"type": "Feature", "properties": {"norad_id": 30892, "name": "FENGYUN 1C DEB", "group": "fengyun-1c-debris", "lat": 57.37111227693385, "lon": 121.53566577201427, "alt_km": 817.7886300378987, "timestamp": "2025-12-09T05:43:21.005334+00:00", "meta": {"OBJECT_NAME": "FENGYUN 1C DEB", "OBJECT_ID": "1999-025AYE", "EPOCH": "2025-12-02T15:45:32.268672", "MEAN_MOTION": 14.18893658, "ECCENTRICITY": 0.00376287, "INCLINATION": 99.6617, "RA_OF_ASC_NODE": 278.9389, "ARG_OF_PERICENTER": 217.7485, "MEAN_ANOMALY": 142.1047, "EPHEMERIS_TYPE": 0, "CLASSIFICATION_TYPE": "U", "NORAD_CAT_ID": 30892, "ELEMENT_SET_NO": 999, "REV_AT_EPOCH": 64160, "BSTAR": 0.00053864396, "MEAN_MOTION_DOT": 1.078e-05, "MEAN_MOTION_DDOT": 0}, "tle": {"line1": "1 30892U 99025AYE 25336.65662348  .00001078  00000+0  53864-3 0  9990", "line2": "2 30892  99.6617 278.9389 0037628 217.7485 142.1047 14.18893658641607"}}, "geometry": {"type": "Point", "coordinates": [121.53566577201427, 57.37111227693385]}}, {"type": "Feature", "properties": {"norad_id": 30893, "name": "FENGYUN 1C DEB", "group": "fengyun-1c-debris", "lat": 22.00907671170121, "lon": -165.86017098224627, "alt_km": 779.9396027036255, "timestamp": "2025-12-09T05:43:21.005344+00:00", "meta": {"OBJECT_NAME": "FENGYUN 1C DEB", "OBJECT_ID": "1999-025AYF", "EPOCH": "2025-12-06T08:24:45.258048", "MEAN_MOTION": 13.94039277, "ECCENTRICITY": 0.03095885, "INCLINATION": 98.258, "RA_OF_ASC_NODE": 8.1876, "ARG_OF_PERICENTER": 110.75, "MEAN_ANOMALY": 318.9405, "EPHEMERIS_TYPE": 0, "CLASSIFICATION_TYPE": "U", "NORAD_CAT_ID": 30893, "ELEMENT_SET_NO": 999, "REV_AT_EPOCH": 94796, "BSTAR": 0.00098360292, "MEAN_MOTION_DOT": 1.902e-05, "MEAN_MOTION_DDOT": 0}, "tle": {"line1": "1 30893U 99025AYF 25340.35052382  .00001902  00000+0  98360-3 0  9990", "line2": "2 30893  98.2580   8.1876 0309588 110.7500 318.9405 13.94039277947964"}}, "geometry": {"type": "Point", "coordinates": [-165.86017098224627, 22.00907671170121]}}, {"type": "Feature", "properties": {"norad_id": 30895, "name": "FENGYUN 1C DEB", "group": "fengyun-1c-debris", "lat": -61.98866490243484, "lon": 68.48044184448665, "alt_km": 942.3923118828125, "timestamp": "2025-12-09T05:43:21.005355+00:00", "meta": {"OBJECT_NAME": "FENGYUN 1C DEB", "OBJECT_ID": "1999-025AYH", "EPOCH": "2025-12-08T03:18:48.079008", "MEAN_MOTION": 14.31528966, "ECCENTRICITY": 0.02180258, "INCLINATION": 98.72, "RA_OF_ASC_NODE": 50.6058, "ARG_OF_PERICENTER": 137.5734, "MEAN_ANOMALY": 250.8449, "EPHEMERIS_TYPE": 0, "CLASSIFICATION_TYPE": "U", "NORAD_CAT_ID": 30895, "ELEMENT_SET_NO": 999, "REV_AT_EPOCH": 97727, "BSTAR": 0.00063185767, "MEAN_MOTION_DOT": 2.133e-05, "MEAN_MOTION_DDOT": 0}, "tle": {"line1": "1 30895U 99025AYH 25342.13805647  .00002133  00000+0  63186-3 0  9995", "line2": "2 30895  98.7200  50.6058 0218025 137.5734 250.8449 14.31528966977274"}}, "geometry": {"type": "Point", "coordinates": [68.48044184448665, -61.98866490243484]}}, {"type": "Feature", "properties": {"norad_id": 30898, "name": "FENGYUN 1C DEB", "group": "fengyun-1c-debris", "lat": 33.7675028974421, "lon": -112.10099036277053, "alt_km": 498.50052378124656, "timestamp": "2025-12-09T05:43:21.005365+00:00", "meta": {"OBJECT_NAME": "FENGYUN 1C DEB", "OBJECT_ID": "1999-025AYL", "EPOCH": "2025-12-05T11:34:54.125760", "MEAN_MOTION": 15.20738594, "ECCENTRICITY": 0.00403265, "INCLINATION": 99.0264, "RA_OF_ASC_NODE": 249.5052, "ARG_OF_PERICENTER": 135.2764, "MEAN_ANOMALY": 225.173, "EPHEMERIS_TYPE": 0, "CLASSIFICATION_TYPE": "U", "NORAD_CAT_ID": 30898, "ELEMENT_SET_NO": 999, "REV_AT_EPOCH": 66261, "BSTAR": 0.0042104008, "MEAN_MOTION_DOT": 0.00095752, "MEAN_MOTION_DDOT": 0}, "tle": {"line1": "1 30898U 99025AYL 25339.48257090  .00095752  00000+0  42104-2 0  9990", "line2": "2 30898  99.0264 249.5052 0040326 135.2764 225.1730 15.20738594662615"}}, "geometry": {"type": "Point", "coordinates": [-112.10099036277053, 33.7675028974421]}}, {"type": "Feature", "properties": {"norad_id": 30903, "name": "FENGYUN 1C DEB", "group": "fengyun-1c-debris", "lat": -18.836256966108316, "lon": 45.549152524732, "alt_km": 914.3514891583754, "timestamp": "2025-12-09T05:43:21.005375+00:00", "meta": {"OBJECT_NAME": "FENGYUN 1C DEB", "OBJECT_ID": "1999-025AYR", "EPOCH": "2025-12-07T09:49:46.651872", "MEAN_MOTION": 13.9759553, "ECCENTRICITY": 0.00968558, "INCLINATION": 99.3712, "RA_OF_ASC_NODE": 226.9134, "ARG_OF_PERICENTER": 107.4967, "MEAN_ANOMALY": 253.6808, "EPHEMERIS_TYPE": 0, "CLASSIFICATION_TYPE": "U", "NORAD_CAT_ID": 30903, "ELEMENT_SET_NO": 999, "REV_AT_EPOCH": 68630, "BSTAR": 0.0004593066, "MEAN_MOTION_DOT": 6.28e-06, "MEAN_MOTION_DDOT": 0}, "tle": {"line1": "1 30903U 99025AYR 25341.40956773  .00000628  00000+0  45931-3 0  9996", "line2": "2 30903  99.3712 226.9134 0096855 107.4967 253.6808 13.97595530686304"}}, "geometry": {"type": "Point", "coordinates": [45.549152524732, -18.836256966108316]}}, {"type": "Feature", "properties": {"norad_id": 30905, "name": "FENGYUN 1C DEB", "group": "fengyun-1c-debris", "lat": -62.87845600320109, "lon": 76.42477915297442, "alt_km": 877.0263567776155, "timestamp": "2025-12-09T05:43:21.005385+00:00", "meta": {"OBJECT_NAME": "FENGYUN 1C DEB", "OBJECT_ID": "1999-025AYT", "EPOCH": "2025-12-08T11:23:46.781664", "MEAN_MOTION": 14.17812388, "ECCENTRICITY": 0.00569304, "INCLINATION": 98.8894, "RA_OF_ASC_NODE": 57.8691, "ARG_OF_PERICENTER": 92.8576, "MEAN_ANOMALY": 267.9116, "EPHEMERIS_TYPE": 0, "CLASSIFICATION_TYPE": "U", "NORAD_CAT_ID": 30905, "ELEMENT_SET_NO": 999, "REV_AT_EPOCH": 96062, "BSTAR": 0.0021694642, "MEAN_MOTION_DOT": 4.456e-05, "MEAN_MOTION_DDOT": 0}, "tle": {"line1": "1 30905U 99025AYT 25342.47484701  .00004456  00000+0  21695-2 0  9996", "line2": "2 30905  98.8894  57.8691 0056930  92.8576 267.9116 14.17812388960629"}}, "geometry": {"type": "Point", "coordinates": [76.42477915297442, -62.87845600320109]}}, {"type": "Feature", "properties": {"norad_id": 30912, "name": "FENGYUN 1C DEB", "group": "fengyun-1c-debris", "lat": 31.405817511402677, "lon": 178.49162089998032, "alt_km": 589.1402069697515, "timestamp": "2025-12-09T05:43:21.005396+00:00", "meta": {"OBJECT_NAME": "FENGYUN 1C DEB", "OBJECT_ID": "1999-025AZA", "EPOCH": "2025-12-08T11:50:30.487488", "MEAN_MOTION": 14.89199277, "ECCENTRICITY": 0.00591518, "INCLINATION": 98.9961, "RA_OF_ASC_NODE": 183.1962, "ARG_OF_PERICENTER": 111.3973, "MEAN_ANOMALY": 249.3566, "EPHEMERIS_TYPE": 0, "CLASSIFICATION_TYPE": "U", "NORAD_CAT_ID": 30912, "ELEMENT_SET_NO": 999, "REV_AT_EPOCH": 99341, "BSTAR": 0.0018132643, "MEAN_MOTION_DOT": 0.00017679, "MEAN_MOTION_DDOT": 0}, "tle": {"line1": "1 30912U 99025AZA 25342.49340842  .00017679  00000+0  18133-2 0  9997", "line2": "2 30912  98.9961 183.1962 0059151 111.3973 249.3566 14.89199277993413"}}, "geometry": {"type": "Point", "coordinates": [178.49162089998032, 31.405817511402677]}}, {"type": "Feature", "properties": {"norad_id": 30913, "name": "FENGYUN 1C DEB", "group": "fengyun-1c-debris", "lat": -1.6867810021477556, "lon": -169.94951575645436, "alt_km": 845.1723257132835, "timestamp": "2025-12-09T05:43:21.005406+00:00", "meta": {"OBJECT_NAME": "FENGYUN 1C DEB", "OBJECT_ID": "1999-025AZB", "EPOCH": "2025-12-08T08:20:57.907680", "MEAN_MOTION": 14.04940156, "ECCENTRICITY": 0.00484104, "INCLINATION": 98.7465, "RA_OF_ASC_NODE": 9.4518, "ARG_OF_PERICENTER": 193.4219, "MEAN_ANOMALY": 166.5665, "EPHEMERIS_TYPE": 0, "CLASSIFICATION_TYPE": "U", "NORAD_CAT_ID": 30913, "ELEMENT_SET_NO": 999, "REV_AT_EPOCH": 95856, "BSTAR": 0.0010166764, "MEAN_MOTION_DOT": 1.61e-05, "MEAN_MOTION_DDOT": 0}, "tle": {"line1": "1 30913U 99025AZB 25342.34789245  .00001610  00000+0  10167-2 0  9993", "line2": "2 30913  98.7465   9.4518 0048410 193.4219 166.5665 14.04940156958562"}}, "geometry": {"type": "Point", "coordinates": [-169.94951575645436, -1.6867810021477556]}}, {"type": "Feature", "properties": {"norad_id": 30914, "name": "FENGYUN 1C DEB", "group": "fengyun-1c-debris", "lat": -5.850329355026236, "lon": 46.329042586012385, "alt_km": 1622.4645768924265, "timestamp": "2025-12-09T05:43:21.005416+00:00", "meta": {"OBJECT_NAME": "FENGYUN 1C DEB", "OBJECT_ID": "1999-025AZC", "EPOCH": "2025-12-05T09:02:51.683712", "MEAN_MOTION": 13.08779712, "ECCENTRICITY": 0.05156065, "INCLINATION": 99.9823, "RA_OF_ASC_NODE": 223.7471, "ARG_OF_PERICENTER": 11.0586, "MEAN_ANOMALY": 350.1366, "EPHEMERIS_TYPE": 0, "CLASSIFICATION_TYPE": "U", "NORAD_CAT_ID": 30914, "ELEMENT_SET_NO": 999, "REV_AT_EPOCH": 58979, "BSTAR": 0.0075081183, "MEAN_MOTION_DOT": 4.885e-05, "MEAN_MOTION_DDOT": 0}, "tle": {"line1": "1 30914U 99025AZC 25339.37698708  .00004885  00000+0  75081-2 0  9999", "line2": "2 30914  99.9823 223.7471 0515606  11.0586 350.1366 13.08779712589796"}}, "geometry": {"type": "Point", "coordinates": [46.329042586012385, -5.850329355026236]}}]}